[{"name":"ONEWEB-0531","l1":"1 54146U 22138AK  26183.68741046 -.00000023  00000+0 -89329-4 0  9993","l2":"2 54146  87.9195 271.3465 0002793  90.4155 269.7298 13.20773284181352","cat":"starlink"},{"name":"ONEWEB-0535","l1":"1 54147U 22138AL  26183.62173465  .00000017  00000+0  10204-4 0  9999","l2":"2 54147  87.9190 301.8854 0002078  92.1794 267.9576 13.19726357178872","cat":"starlink"},{"name":"ONEWEB-0536","l1":"1 54148U 22138AM  26183.67394147  .00000006  00000+0 -16440-4 0  9994","l2":"2 54148  87.9185 271.3701 0003015  92.4089 267.7389 13.20772243181344","cat":"starlink"},{"name":"ONEWEB-0527","l1":"1 54642U 22166A   26183.61871801  .00000143  00000+0  31515-3 0  9995","l2":"2 54642  87.9242 240.9265 0002065  99.3617 260.7750 13.21825285173578","cat":"starlink"},{"name":"ONEWEB-0528","l1":"1 54643U 22166B   26183.16536899  .00000044  00000+0  74198-4 0  9996","l2":"2 54643  87.9246 241.0192 0002050 104.2816 255.8546 13.21825901173523","cat":"starlink"},{"name":"ONEWEB-0539","l1":"1 54644U 22166C   26183.58168588  .00000052  00000+0  95020-4 0  9995","l2":"2 54644  87.9249 240.9091 0001866  94.3002 265.8345 13.21827991173577","cat":"starlink"},{"name":"ONEWEB-0540","l1":"1 54645U 22166D   26183.58854698  .00000078  00000+0  15704-3 0  9998","l2":"2 54645  87.9245 240.9370 0001962  94.3859 265.7500 13.21827868173565","cat":"starlink"},{"name":"ONEWEB-0542","l1":"1 54646U 22166E   26183.59179549  .00000035  00000+0  52445-4 0  9992","l2":"2 54646  87.9252 240.9060 0001834  91.9191 268.2153 13.21825187173575","cat":"starlink"},{"name":"ONEWEB-0545","l1":"1 54647U 22166F   26183.17801168 -.00002703  00000+0 -65808-2 0  9997","l2":"2 54647  87.9237 240.9986 0001732  79.6692 280.4637 13.21801268173489","cat":"starlink"},{"name":"ONEWEB-0580","l1":"1 54648U 22166G   26183.60689596 -.00000250  00000+0 -63760-3 0  9996","l2":"2 54648  87.9245 240.9134 0001864  84.1512 275.9834 13.21826186173587","cat":"starlink"},{"name":"ONEWEB-0582","l1":"1 54649U 22166H   26183.57327877  .00000045  00000+0  78408-4 0  9990","l2":"2 54649  87.9243 240.9126 0001887  85.7434 274.3916 13.21827211173553","cat":"starlink"},{"name":"ONEWEB-0583","l1":"1 54650U 22166J   26183.58506836  .00000035  00000+0  53211-4 0  9991","l2":"2 54650  87.9247 240.9338 0001988  94.5738 265.5623 13.21825337173566","cat":"starlink"},{"name":"ONEWEB-0584","l1":"1 54651U 22166K   26183.60523369  .00000036  00000+0  56372-4 0  9997","l2":"2 54651  87.9240 240.9147 0002022  94.8339 265.3026 13.21824324173557","cat":"starlink"},{"name":"ONEWEB-0585","l1":"1 54652U 22166L   26183.55309600  .00000042  00000+0  70758-4 0  9993","l2":"2 54652  87.9240 240.9113 0002088  97.1716 262.9655 13.21827579173554","cat":"starlink"},{"name":"ONEWEB-0586","l1":"1 54653U 22166M   26183.18808404  .00000069  00000+0  13482-3 0  9998","l2":"2 54653  87.9246 241.0106 0001928  94.4487 265.6867 13.21825860173503","cat":"starlink"},{"name":"ONEWEB-0587","l1":"1 54654U 22166N   26183.57666013  .00000049  00000+0  87371-4 0  9997","l2":"2 54654  87.9256 240.9085 0002289 104.4802 255.6586 13.21825322173716","cat":"starlink"},{"name":"ONEWEB-0589","l1":"1 54655U 22166P   26183.18471972  .00000115  00000+0  24575-3 0  9993","l2":"2 54655  87.9240 240.9965 0001882  72.7191 287.4149 13.21825633173525","cat":"starlink"},{"name":"ONEWEB-0590","l1":"1 54656U 22166Q   26183.58828178  .00000035  00000+0  52797-4 0  9991","l2":"2 54656  87.9252 240.9083 0002450  90.7019 269.4396 13.21825461173568","cat":"starlink"},{"name":"ONEWEB-0591","l1":"1 54657U 22166R   26183.60019964  .00000031  00000+0  44195-4 0  9999","l2":"2 54657  87.9245 240.9190 0002102  95.6193 264.5181 13.21827874173592","cat":"starlink"},{"name":"ONEWEB-0592","l1":"1 54658U 22166S   26183.60354044 -.00000417  00000+0 -10409-2 0  9990","l2":"2 54658  87.9255 240.8980 0002011  96.7279 263.4084 13.21825848173472","cat":"starlink"},{"name":"ONEWEB-0593","l1":"1 54659U 22166T   26183.17125604  .00000079  00000+0  15943-3 0  9992","l2":"2 54659  87.9244 240.9945 0001904  96.5264 263.6087 13.21825748173525","cat":"starlink"},{"name":"ONEWEB-0594","l1":"1 54660U 22166U   26183.56990664 -.00000278  00000+0 -70421-3 0  9998","l2":"2 54660  87.9240 240.9312 0002052 102.2891 257.8473 13.21826127173590","cat":"starlink"},{"name":"ONEWEB-0595","l1":"1 54661U 22166V   26183.16789387  .00000085  00000+0  17546-3 0  9996","l2":"2 54661  87.9253 240.9931 0002216 101.6077 258.5306 13.21824763173512","cat":"starlink"},{"name":"ONEWEB-0596","l1":"1 54662U 22166W   26183.59682584 -.00000193  00000+0 -49836-3 0  9994","l2":"2 54662  87.9245 240.9184 0002019  96.3924 263.7440 13.21828912173579","cat":"starlink"},{"name":"ONEWEB-0597","l1":"1 54663U 22166X   26183.57832414  .00000045  00000+0  76854-4 0  9997","l2":"2 54663  87.9244 240.9249 0001960  94.8721 265.2637 13.21827749173575","cat":"starlink"},{"name":"ONEWEB-0600","l1":"1 54664U 22166Y   26183.55983787  .00000050  00000+0  89600-4 0  9995","l2":"2 54664  87.9240 240.9195 0001880  99.7216 260.4131 13.21825188173544","cat":"starlink"},{"name":"ONEWEB-0601","l1":"1 54665U 22166Z   26183.55141058 -.00000024  00000+0 -90279-4 0  9990","l2":"2 54665  87.9243 240.9375 0001861  91.0198 269.1149 13.21824091173739","cat":"starlink"},{"name":"ONEWEB-0602","l1":"1 54666U 22166AA  26183.59261905  .00000039  00000+0  63955-4 0  9994","l2":"2 54666  87.9239 240.9353 0001795 100.3473 259.7863 13.21827563173585","cat":"starlink"},{"name":"ONEWEB-0603","l1":"1 54667U 22166AB  26183.59851311  .00000070  00000+0  13851-3 0  9995","l2":"2 54667  87.9257 240.8927 0001959  96.3511 263.7846 13.21827984173517","cat":"starlink"},{"name":"ONEWEB-0604","l1":"1 54668U 22166AC  26183.58671535 -.00000380  00000+0 -95172-3 0  9995","l2":"2 54668  87.9252 240.9107 0002093 100.5512 259.5858 13.21825644173475","cat":"starlink"}]