OBJECT_NAME,OBJECT_ID,EPOCH,MEAN_MOTION,ECCENTRICITY,INCLINATION,RA_OF_ASC_NODE,ARG_OF_PERICENTER,MEAN_ANOMALY,EPHEMERIS_TYPE,CLASSIFICATION_TYPE,NORAD_CAT_ID,ELEMENT_SET_NO,REV_AT_EPOCH,BSTAR,MEAN_MOTION_DOT,MEAN_MOTION_DDOT
ONEWEB-0531,2022-138AK,2026-07-02T16:29:52.263744,13.20773284,.0002793,87.9195,271.3465,90.4155,269.7298,0,U,54146,999,18135,-.89329E-4,-.23E-6,0
ONEWEB-0535,2022-138AL,2026-07-02T14:55:17.873760,13.19726357,.0002078,87.9190,301.8854,92.1794,267.9576,0,U,54147,999,17887,.10204E-4,.17E-6,0
ONEWEB-0536,2022-138AM,2026-07-02T16:10:28.543008,13.20772243,.0003015,87.9185,271.3701,92.4089,267.7389,0,U,54148,999,18134,-.1644E-4,.6E-7,0
ONEWEB-0527,2022-166A,2026-07-02T14:50:57.236064,13.21825285,.0002065,87.9242,240.9265,99.3617,260.7750,0,U,54642,999,17357,.31515E-3,.143E-5,0
ONEWEB-0528,2022-166B,2026-07-02T03:58:07.880736,13.21825901,.00020507,87.9246,241.0192,104.2816,255.8546,0,U,54643,999,17352,.74198123E-4,.44E-6,0
ONEWEB-0539,2022-166C,2026-07-02T13:57:37.660032,13.21827991,.0001866,87.9249,240.9091,94.3002,265.8345,0,U,54644,999,17357,.9502E-4,.52E-6,0
ONEWEB-0540,2022-166D,2026-07-02T14:07:30.459072,13.21827868,.0001962,87.9245,240.9370,94.3859,265.7500,0,U,54645,999,17356,.15704E-3,.78E-6,0
ONEWEB-0542,2022-166E,2026-07-02T14:12:11.130336,13.21825187,.0001834,87.9252,240.9060,91.9191,268.2153,0,U,54646,999,17357,.52445E-4,.35E-6,0
ONEWEB-0545,2022-166F,2026-07-02T04:16:20.209152,13.21801268,.0001732,87.9237,240.9986,79.6692,280.4637,0,U,54647,999,17348,-.65807603E-2,-.2703E-4,0
ONEWEB-0580,2022-166G,2026-07-02T14:33:55.810944,13.21826186,.0001864,87.9245,240.9134,84.1512,275.9834,0,U,54648,999,17358,-.6376E-3,-.25E-5,0
ONEWEB-0582,2022-166H,2026-07-02T13:45:31.285728,13.21827211,.0001887,87.9243,240.9126,85.7434,274.3916,0,U,54649,999,17355,.78408E-4,.45E-6,0
ONEWEB-0583,2022-166J,2026-07-02T14:02:29.906304,13.21825337,.0001988,87.9247,240.9338,94.5738,265.5623,0,U,54650,999,17356,.53211E-4,.35E-6,0
ONEWEB-0584,2022-166K,2026-07-02T14:31:32.190816,13.21824324,.0002022,87.9240,240.9147,94.8339,265.3026,0,U,54651,999,17355,.56372E-4,.36E-6,0
ONEWEB-0585,2022-166L,2026-07-02T13:16:27.494400,13.21827579,.0002088,87.9240,240.9113,97.1716,262.9655,0,U,54652,999,17355,.70758E-4,.42E-6,0
ONEWEB-0586,2022-166M,2026-07-02T04:30:50.461056,13.21825860,.00019283,87.9246,241.0106,94.4487,265.6867,0,U,54653,999,17350,.13482141E-3,.69E-6,0
ONEWEB-0587,2022-166N,2026-07-02T13:50:23.435232,13.21825322,.0002289,87.9256,240.9085,104.4802,255.6586,0,U,54654,999,17371,.87371E-4,.49E-6,0
ONEWEB-0589,2022-166P,2026-07-02T04:25:59.783808,13.21825633,.00018822,87.9240,240.9965,72.7191,287.4149,0,U,54655,999,17352,.24574869E-3,.115E-5,0
ONEWEB-0590,2022-166Q,2026-07-02T14:07:07.545792,13.21825461,.000245,87.9252,240.9083,90.7019,269.4396,0,U,54656,999,17356,.52797E-4,.35E-6,0
ONEWEB-0591,2022-166R,2026-07-02T14:24:17.248896,13.21827874,.0002102,87.9245,240.9190,95.6193,264.5181,0,U,54657,999,17359,.44195E-4,.31E-6,0
ONEWEB-0592,2022-166S,2026-07-02T14:29:05.894016,13.21825848,.0002011,87.9255,240.8980,96.7279,263.4084,0,U,54658,999,17347,-.10409E-2,-.417E-5,0
ONEWEB-0593,2022-166T,2026-07-02T04:06:36.521856,13.21825748,.00019042,87.9244,240.9945,96.5264,263.6087,0,U,54659,999,17352,.15942533E-3,.79E-6,0
ONEWEB-0594,2022-166U,2026-07-02T13:40:39.933696,13.21826127,.0002052,87.9240,240.9312,102.2891,257.8473,0,U,54660,999,17359,-.70421E-3,-.278E-5,0
ONEWEB-0595,2022-166V,2026-07-02T04:01:46.030368,13.21824763,.00022164,87.9253,240.9931,101.6077,258.5306,0,U,54661,999,17351,.17545951E-3,.85E-6,0
ONEWEB-0596,2022-166W,2026-07-02T14:19:25.752576,13.21828912,.0002019,87.9245,240.9184,96.3924,263.7440,0,U,54662,999,17357,-.49836E-3,-.193E-5,0
ONEWEB-0597,2022-166X,2026-07-02T13:52:47.205696,13.21827749,.000196,87.9244,240.9249,94.8721,265.2637,0,U,54663,999,17357,.76854E-4,.45E-6,0
ONEWEB-0600,2022-166Y,2026-07-02T13:26:09.991968,13.21825188,.000188,87.9240,240.9195,99.7216,260.4131,0,U,54664,999,17354,.896E-4,.5E-6,0
ONEWEB-0601,2022-166Z,2026-07-02T13:14:01.874112,13.21824091,.0001861,87.9243,240.9375,91.0198,269.1149,0,U,54665,999,17373,-.90279E-4,-.24E-6,0
ONEWEB-0602,2022-166AA,2026-07-02T14:13:22.285920,13.21827563,.0001795,87.9239,240.9353,100.3473,259.7863,0,U,54666,999,17358,.63955E-4,.39E-6,0
ONEWEB-0603,2022-166AB,2026-07-02T14:21:51.532704,13.21827984,.0001959,87.9257,240.8927,96.3511,263.7846,0,U,54667,999,17351,.13851E-3,.7E-6,0
ONEWEB-0604,2022-166AC,2026-07-02T14:04:52.206240,13.21825644,.0002093,87.9252,240.9107,100.5512,259.5858,0,U,54668,999,17347,-.95172E-3,-.38E-5,0
